[{"OBJECT_NAME":"STARLINK-11420 [DTC]","OBJECT_ID":"2025-008E","EPOCH":"2026-03-09T04:28:59.602080","MEAN_MOTION":15.70951351,"ECCENTRICITY":0.00012118,"INCLINATION":42.9987,"RA_OF_ASC_NODE":129.3295,"ARG_OF_PERICENTER":240.3762,"MEAN_ANOMALY":119.6985,"EPHEMERIS_TYPE":0,"CLASSIFICATION_TYPE":"U","NORAD_CAT_ID":62591,"ELEMENT_SET_NO":999,"REV_AT_EPOCH":6721,"BSTAR":0.0016236667,"MEAN_MOTION_DOT":0.00214351,"MEAN_MOTION_DDOT":0},{"OBJECT_NAME":"ELECTRON KICK STAGE R\/B","OBJECT_ID":"2025-305E","EPOCH":"2026-03-09T17:28:24.696768","MEAN_MOTION":15.78060503,"ECCENTRICITY":0.01033089,"INCLINATION":44.9756,"RA_OF_ASC_NODE":214.1215,"ARG_OF_PERICENTER":272.8546,"MEAN_ANOMALY":86.0537,"EPHEMERIS_TYPE":0,"CLASSIFICATION_TYPE":"U","NORAD_CAT_ID":67223,"ELEMENT_SET_NO":999,"REV_AT_EPOCH":1273,"BSTAR":0.0014223477,"MEAN_MOTION_DOT":0.00360525,"MEAN_MOTION_DDOT":5.0909257e-5}]
